COSMOS 2426 (717)       
1 29671U 06062B   20112.11857668 -.00000014  00000-0  10000-3 0  9997
2 29671  64.9913 269.8479 0019861 170.2761  42.3179  2.12962342103677
COSMOS 2433 (720)       
1 32275U 07052A   20112.05815649 -.00000080  00000-0  10000-3 0  9990
2 32275  65.9648  30.8323 0003621 283.2388 353.3910  2.13104238 97187
COSMOS 2432 (719)       
1 32276U 07052B   20112.44030955 -.00000078  00000-0  10000-3 0  9990
2 32276  65.9761  30.9069 0012083 330.7638 189.3597  2.13103714 97197
COSMOS 2434 (721)       
1 32393U 07065A   20112.41276722 -.00000015  00000-0  00000+0 0  9991
2 32393  64.5968 268.3739 0004946  90.1755 346.0174  2.13103066 95908
COSMOS 2436 (723)       
1 32395U 07065C   20112.22446013 -.00000015  00000-0  10000-3 0  9999
2 32395  64.6033 268.4293 0014850   8.2152  59.7726  2.13102980 95833
COSMOS 2456 (730)       
1 36111U 09070A   20112.46180316  .00000084  00000-0  00000+0 0  9994
2 36111  64.2210 148.0434 0005729 306.1603 341.0588  2.13102825 80567
COSMOS 2457 (733)       
1 36112U 09070B   20112.09097450  .00000083  00000-0  00000-0 0  9990
2 36112  64.2040 147.9505 0004961 188.0708 298.2100  2.13101448 80569
COSMOS 2459 (731)       
1 36400U 10007A   20111.70117845 -.00000083  00000-0  10000-3 0  9995
2 36400  65.8667  29.8227 0027303 349.1172 228.8563  2.13105100 78906
COSMOS 2461 (735)       
1 36401U 10007B   20112.15156846 -.00000080  00000-0  10000-3 0  9997
2 36401  65.8606  29.7783 0007234  48.5923  63.6511  2.13101976 78917
COSMOS 2460 (732)       
1 36402U 10007C   20111.76848170 -.00000082  00000-0  10000-3 0  9994
2 36402  65.8490  29.7510 0001856 339.2804 238.3123  2.13101343 78906
COSMOS 2464 (736)       
1 37139U 10041C   20112.46089976 -.00000016  00000-0  00000+0 0  9991
2 37139  64.1969 267.8415 0027274  14.9942 322.1564  2.13100666 74980
COSMOS 2474 (742)       
1 37829U 11055A   20112.18748300  .00000083  00000-0  00000-0 0  9999
2 37829  64.5412 149.0542 0010136 248.4316  43.3539  2.13101748 66553
COSMOS 2476 (744)       
1 37867U 11064A   20112.40289767  .00000083  00000-0  00000+0 0  9992
2 37867  64.5218 149.0929 0020952 241.5570 261.7228  2.13101897 65916
COSMOS 2477 (745)       
1 37868U 11064B   20112.14764601  .00000083  00000-0  00000+0 0  9999
2 37868  64.5299 149.1578 0018597 243.1346 242.8537  2.13101795 65862
COSMOS 2475 (743)       
1 37869U 11064C   20112.39586382  .00000083  00000-0  00000+0 0  9995
2 37869  64.5364 149.1491 0022856 262.7201  11.0189  2.13101927 65877
COSMOS 2485 (747)       
1 39155U 13019A   20112.35155289  .00000084  00000-0  00000+0 0  9992
2 39155  64.6887 149.3501 0021324 237.4135 271.0648  2.13101876 54381
COSMOS 2492 (754)       
1 39620U 14012A   20112.13756774 -.00000080  00000-0  10000-3 0  9997
2 39620  65.7400  29.5279 0015428 326.4010  53.0137  2.13103239 47334
COSMOS 2500 (755)       
1 40001U 14032A   20111.62797244 -.00000083  00000-0  00000-0 0  9993
2 40001  65.6806  29.4659 0005170 221.6399 347.5086  2.13102656 45534
COSMOS 2501 (702K)      
1 40315U 14075A   20111.91724468 -.00000017  00000-0  00000-0 0  9995
2 40315  63.9142 268.8264 0015229 203.6330  22.8813  2.13098569 41947
COSMOS 2514 (751)       
1 41330U 16008A   20111.25281731 -.00000086  00000-0  00000-0 0  9995
2 41330  65.4822  29.3664 0008958 226.6520 237.0055  2.13102993 32695
COSMOS 2516 (753)       
1 41554U 16032A   20112.22138325 -.00000016  00000-0  00000+0 0  9990
2 41554  64.1357 268.8714 0010883 211.8335 165.6243  2.13101679 30321
COSMOS 2522 (752)       
1 42939U 17055A   20112.18543641 -.00000015  00000-0  00000-0 0  9990
2 42939  64.3689 269.0337 0005183 245.4656 330.9833  2.13101906 20075
COSMOS 2527 (756)       
1 43508U 18053A   20112.19825144  .00000084  00000-0  00000-0 0  9999
2 43508  64.8538 149.1916 0008774 240.5324  17.4632  2.13102576 14367
COSMOS 2529 (757)       
1 43687U 18086A   20112.22317005 -.00000015  00000-0  00000-0 0  9994
2 43687  64.5834 269.1384 0007846 277.0269 283.9908  2.13102029 11383
COSMOS 2534 (758)       
1 44299U 19030A   20111.40492975 -.00000015  00000-0  00000+0 0  9992
2 44299  64.6515 268.9784 0011338 296.7371 131.6208  2.13101963  7017
